ONEWEB-0055             
1 45443U 20020V   24029.47267722  .00000451  00000+0  12354-2 0  9994
2 45443  87.8974 193.9338 0001514  95.8829 264.2471 13.11422704188629
ONEWEB-0093             
1 45444U 20020W   24029.90369887  .00000561  00000+0  15467-2 0  9998
2 45444  87.8978 193.8281 0001803  95.0419 265.0914 13.11415999188740
ONEWEB-0029             
1 45445U 20020X   24029.46538123 -.00000187  00000+0 -56337-3 0  9999
2 45445  87.8979 193.9287 0001533 103.8640 256.2658 13.11416370188665
ONEWEB-0068             
1 45446U 20020Y   24029.89802305  .00000545  00000+0  15031-2 0  9994
2 45446  87.8979 193.8281 0001673  97.2905 262.8413 13.11418232188665
ONEWEB-0046             
1 45447U 20020Z   24029.89557672  .00000509  00000+0  14008-2 0  9992
2 45447  87.8980 193.8413 0001299 110.3932 249.7335 13.11418886188679
ONEWEB-0063             
1 45448U 20020AA  24029.46700224 -.00000181  00000+0 -54571-3 0  9997
2 45448  87.8976 193.9277 0001120 106.4682 253.6569 13.11407051188704
ONEWEB-0019             
1 45449U 20020AB  24029.89883988  .00000586  00000+0  16162-2 0  9994
2 45449  87.8982 193.8402 0001391  87.6402 272.4885 13.11417715188608
ONEWEB-0094             
1 45450U 20020AC  24029.83647126  .00000039  00000+0  66996-4 0  9997
2 45450  87.9230 178.7293 0001573 101.3563 258.7745 13.17650836191820
ONEWEB-0087             
1 45451U 20020AD  24029.47349737 -.00000379  00000+0 -11042-2 0  9994
2 45451  87.8971 193.9056 0001675 108.3398 251.7912 13.11414990188596
ONEWEB-0082             
1 45452U 20020AE  24029.47512257 -.00000409  00000+0 -11898-2 0  9997
2 45452  87.8976 193.9027 0001541  95.0687 265.0616 13.11415232188684
ONEWEB-0050             
1 45453U 20020AF  24029.50203357  .00005822  00000+0  45322-3 0  9992
2 45453  87.9969  63.5638 0021934 201.8625 158.1676 15.00892113210822
ONEWEB-0034             
1 45454U 20020AG  24029.49460013 -.00000300  00000+0 -88114-3 0  9999
2 45454  87.8979 193.9169 0001556 101.2163 258.9140 13.11418076188605
ONEWEB-0060             
1 45455U 20020AH  24029.50272430  .00000205  00000+0  54206-3 0  9993
2 45455  87.8982 193.9111 0001466 103.2807 256.8485 13.11419170188564
ONEWEB-0086             
1 45456U 20020AJ  24029.90207067  .00000574  00000+0  15843-2 0  9994
2 45456  87.8978 193.8386 0001853 107.8249 252.3081 13.11418024188675
ONEWEB-0088             
1 45457U 20020AK  24029.49784956 -.00000026  00000+0 -10940-3 0  9994
2 45457  87.8974 193.8898 0001518 102.3532 257.7766 13.11419267188559
ONEWEB-0102             
1 47258U 20100A   24029.42216358  .00000298  00000+0  79170-3 0  9992
2 47258  87.9033 163.7338 0001421  96.5035 263.6255 13.12444755150646
ONEWEB-0109             
1 47259U 20100B   24029.43007766  .00000514  00000+0  13941-2 0  9999
2 47259  87.9035 163.6949 0001510  96.5871 263.5429 13.12443813150470
ONEWEB-0110             
1 47260U 20100C   24029.45389425  .00000060  00000+0  13115-3 0  9998
2 47260  87.9029 163.7035 0001637  96.7040 263.4275 13.12442829150645
ONEWEB-0111             
1 47261U 20100D   24029.79219655 -.00000207  00000+0 -61197-3 0  9991
2 47261  87.9034 163.6259 0001562  99.6242 260.5064 13.12445078150522
ONEWEB-0114             
1 47262U 20100E   24029.36496053  .00000468  00000+0  12646-2 0  9995
2 47262  87.9029 163.7323 0001241  85.6499 274.4772 13.12443243150424
ONEWEB-0117             
1 47263U 20100F   24029.43325782  .00000543  00000+0  14752-2 0  9998
2 47263  87.9033 163.6879 0001574 103.8162 256.3142 13.12443153150446
ONEWEB-0118             
1 47264U 20100G   24029.38876724  .00000153  00000+0  38903-3 0  9992
2 47264  87.9034 163.7014 0001227 106.7447 253.3816 13.12444802150631
ONEWEB-0119             
1 47265U 20100H   24029.41736881  .00000125  00000+0  31284-3 0  9990
2 47265  87.9034 163.7341 0001637 100.9711 259.1602 13.12444552150617
ONEWEB-0120             
1 47266U 20100J   24029.44675995  .00000215  00000+0  56124-3 0  9992
2 47266  87.9037 163.7187 0001318  97.5760 262.5518 13.12443590150648
ONEWEB-0121             
1 47267U 20100K   24029.42848706  .00000391  00000+0  10524-2 0  9991
2 47267  87.9030 163.7173 0001693 103.1668 256.9649 13.12443753150557
ONEWEB-0122             
1 47268U 20100L   24029.80477717  .00000237  00000+0  62325-3 0  9990
2 47268  87.9030 163.6474 0001514  98.1734 261.9567 13.12442728150512
ONEWEB-0123             
1 47269U 20100M   24029.41895784  .00000205  00000+0  53543-3 0  9993
2 47269  87.9036 163.7328 0001520 101.8336 258.2963 13.12444102150602
ONEWEB-0124             
1 47270U 20100N   24029.40784317 -.00000166  00000+0 -49558-3 0  9992
2 47270  87.9033 163.7304 0001839 101.1653 258.9683 13.12443325150481
ONEWEB-0125             
1 47271U 20100P   24029.38241999 -.00000114  00000+0 -35169-3 0  9990
2 47271  87.9034 163.6927 0001364 115.5699 244.5570 13.12442299150547
ONEWEB-0126             
1 47272U 20100Q   24029.41022588 -.00000121  00000+0 -37233-3 0  9998
2 47272  87.9031 163.6997 0001472  96.9796 263.1500 13.12445706150616
ONEWEB-0127             
1 47273U 20100R   24029.44754805  .00000294  00000+0  78132-3 0  9998
2 47273  87.9034 163.7161 0001451  97.7648 262.3646 13.12442264150647
ONEWEB-0128             
1 47274U 20100S   24029.39353412 -.00000321  00000+0 -92637-3 0  9991
2 47274  87.9040 163.7211 0001842  98.1427 261.9910 13.12444125150653
ONEWEB-0129             
1 47275U 20100T   24029.37290769  .00000272  00000+0  71990-3 0  9997
2 47275  87.9036 163.7010 0001282  28.6150 331.5049 13.12443689150588
ONEWEB-0130             
1 47276U 20100U   24029.78266756 -.00000471  00000+0 -13458-2 0  9999
2 47276  87.9032 163.6300 0001651  98.9232 261.2084 13.12442694150603
ONEWEB-0131             
1 47277U 20100V   24029.77949190 -.00000573  00000+0 -16294-2 0  9993
2 47277  87.9036 163.6416 0001657 102.2251 257.9064 13.12442264150649
ONEWEB-0132             
1 47278U 20100W   24029.42689093  .00000244  00000+0  64177-3 0  9996
2 47278  87.9035 163.7135 0001722 109.5515 250.5799 13.12444594150499
ONEWEB-0133             
1 47279U 20100X   24029.44278344  .00000264  00000+0  69988-3 0  9999
2 47279  87.9031 163.7167 0001619 101.8066 258.3244 13.12441989150656
ONEWEB-0134             
1 47280U 20100Y   24029.41260784 -.00000044  00000+0 -15702-3 0  9990
2 47280  87.9028 163.7120 0001701  94.4660 265.6663 13.12444068150626
ONEWEB-0135             
1 47281U 20100Z   24029.45707283 -.00000110  00000+0 -34127-3 0  9991
2 47281  87.9034 163.7108 0001592  99.0603 261.0705 13.12441361150659
ONEWEB-0136             
1 47282U 20100AA  24029.40306530 -.00000380  00000+0 -10919-2 0  9998
2 47282  87.9035 163.6903 0001813  86.0861 274.0475 13.12442588150572
ONEWEB-0137             
1 47283U 20100AB  24029.43643341  .00000499  00000+0  13516-2 0  9991
2 47283  87.9031 163.7146 0001340  98.8075 261.3205 13.12443492150487
ONEWEB-0138             
1 47284U 20100AC  24029.79696522 -.00000049  00000+0 -17290-3 0  9997
2 47284  87.9030 163.6558 0001533  99.6381 260.4920 13.12445222150618
ONEWEB-0139             
1 47285U 20100AD  24029.38718704 -.00000226  00000+0 -66449-3 0  9997
2 47285  87.9035 163.7024 0001594 101.8564 258.2743 13.12441997150634
ONEWEB-0140             
1 47286U 20100AE  24029.40942402 -.00000024  00000+0 -10299-3 0  9993
2 47286  87.9030 163.7077 0001626  96.4753 263.6561 13.12444655150602
ONEWEB-0141             
1 47287U 20100AF  24029.81046399  .00000388  00000+0  10421-2 0  9996
2 47287  87.9032 163.6257 0001393 110.9919 249.1359 13.12446103150649
ONEWEB-0142             
1 47288U 20100AG  24029.42292866  .00000310  00000+0  82743-3 0  9998
2 47288  87.9030 163.6957 0001302  92.3128 267.8149 13.12443420150586
ONEWEB-0143             
1 47289U 20100AH  24029.37607184  .00000151  00000+0  38326-3 0  9997
2 47289  87.9033 163.7234 0001509 105.1659 254.9637 13.12442547150555
ONEWEB-0144             
1 47290U 20100AJ  24029.42531775  .00000344  00000+0  91996-3 0  9993
2 47290  87.9031 163.6979 0001349  86.4215 273.7068 13.12443535150488
ONEWEB-0145             
1 47291U 20100AK  24029.39671177 -.00000493  00000+0 -14060-2 0  9994
2 47291  87.9032 163.7273 0001455  98.4778 261.6516 13.12443037150675
ONEWEB-0146             
1 47292U 20100AL  24029.39194776 -.00000334  00000+0 -96272-3 0  9990
2 47292  87.9031 163.7098 0001859 117.5468 242.5850 13.12442702150584
ONEWEB-0147             
1 47293U 20100AM  24029.43484411  .00000428  00000+0  11536-2 0  9995
2 47293  87.9030 163.7012 0001705  91.0629 269.0695 13.12444115150485
ONEWEB-0115             
1 48042U 21025A   24029.30343858 -.00000123  00000+0 -37209-3 0  9990
2 48042  87.9005 133.3937 0001850 109.4762 250.6567 13.13469398139406
ONEWEB-0152             
1 48043U 21025B   24029.31613187 -.00000396  00000+0 -11202-2 0  9993
2 48043  87.9008 133.3833 0001801 102.6008 257.5322 13.13470614139362
ONEWEB-0153             
1 48044U 21025C   24029.29391813  .00000104  00000+0  25042-3 0  9993
2 48044  87.9014 133.3717 0001611 101.3030 258.8280 13.13468899139359
ONEWEB-0154             
1 48045U 21025D   24029.36692618  .00000197  00000+0  50386-3 0  9990
2 48045  87.9010 133.3730 0001729 104.4975 255.6346 13.13468940139325
ONEWEB-0116             
1 48046U 21025E   24029.71289234 -.00000278  00000+0 -79731-3 0  9993
2 48046  87.9011 133.2689 0001881 110.1178 250.0153 13.13470323139511
ONEWEB-0150             
1 48047U 21025F   24029.30660768 -.00000331  00000+0 -94260-3 0  9998
2 48047  87.9007 133.3768 0001558 105.8885 254.2416 13.13471331139353
ONEWEB-0107             
1 48048U 21025G   24029.30820249 -.00000235  00000+0 -67788-3 0  9999
2 48048  87.9006 133.3743 0001335  99.5312 260.5968 13.13471277139332
ONEWEB-0101             
1 48049U 21025H   24029.72876822  .00000394  00000+0  10452-2 0  9993
2 48049  87.9013 133.2993 0001741 102.2779 257.8545 13.13471475139360
